CCSDS_OMM_VERS = 2.0
CREATION_DATE  = 
ORIGINATOR     = 

OBJECT_NAME    = ATLAS CENTAUR 2
OBJECT_ID      = 1963-047A
CENTER_NAME    = EARTH
REF_FRAME      = TEME
TIME_SYSTEM    = UTC
MEAN_ELEMENT_THEORY = SGP/SGP4

EPOCH          = 2025-11-30T11:44:07.008000
MEAN_MOTION    = 14.11647629
ECCENTRICITY   = .05494783
INCLINATION    = 30.3590
RA_OF_ASC_NODE = 29.8796
ARG_OF_PERICENTER = 286.2697
MEAN_ANOMALY   = 67.8161

EPHEMERIS_TYPE = 0
CLASSIFICATION_TYPE = U
NORAD_CAT_ID   = 694
ELEMENT_SET_NO = 999
REV_AT_EPOCH   = 11759
BSTAR          = .45001472E-3
MEAN_MOTION_DOT = .3775E-4
MEAN_MOTION_DDOT = 0

CCSDS_OMM_VERS = 2.0
CREATION_DATE  = 
ORIGINATOR     = 

OBJECT_NAME    = THOR AGENA D R/B
OBJECT_ID      = 1964-002A
CENTER_NAME    = EARTH
REF_FRAME      = TEME
TIME_SYSTEM    = UTC
MEAN_ELEMENT_THEORY = SGP/SGP4

EPOCH          = 2025-11-30T12:16:28.224192
MEAN_MOTION    = 14.33947953
ECCENTRICITY   = .00327878
INCLINATION    = 99.1220
RA_OF_ASC_NODE = 337.4690
ARG_OF_PERICENTER = 185.5962
MEAN_ANOMALY   = 174.4859

EPHEMERIS_TYPE = 0
CLASSIFICATION_TYPE = U
NORAD_CAT_ID   = 733
ELEMENT_SET_NO = 999
REV_AT_EPOCH   = 22408
BSTAR          = .1116153E-3
MEAN_MOTION_DOT = .264E-5
MEAN_MOTION_DDOT = 0

CCSDS_OMM_VERS = 2.0
CREATION_DATE  = 
ORIGINATOR     = 

OBJECT_NAME    = SL-3 R/B
OBJECT_ID      = 1964-053B
CENTER_NAME    = EARTH
REF_FRAME      = TEME
TIME_SYSTEM    = UTC
MEAN_ELEMENT_THEORY = SGP/SGP4

EPOCH          = 2025-11-30T12:39:06.184224
MEAN_MOTION    = 14.61255398
ECCENTRICITY   = .0072796
INCLINATION    = 65.0769
RA_OF_ASC_NODE = 261.9302
ARG_OF_PERICENTER = 324.4388
MEAN_ANOMALY   = 35.1871

EPHEMERIS_TYPE = 0
CLASSIFICATION_TYPE = U
NORAD_CAT_ID   = 877
ELEMENT_SET_NO = 999
REV_AT_EPOCH   = 25230
BSTAR          = .11220271E-3
MEAN_MOTION_DOT = .451E-5
MEAN_MOTION_DDOT = 0

CCSDS_OMM_VERS = 2.0
CREATION_DATE  = 
ORIGINATOR     = 

OBJECT_NAME    = SL-8 R/B
OBJECT_ID      = 1967-045B
CENTER_NAME    = EARTH
REF_FRAME      = TEME
TIME_SYSTEM    = UTC
MEAN_ELEMENT_THEORY = SGP/SGP4

EPOCH          = 2025-11-30T14:41:40.936704
MEAN_MOTION    = 14.45519781
ECCENTRICITY   = .00648764
INCLINATION    = 74.0092
RA_OF_ASC_NODE = 173.1078
ARG_OF_PERICENTER = 205.1963
MEAN_ANOMALY   = 154.6027

EPHEMERIS_TYPE = 0
CLASSIFICATION_TYPE = U
NORAD_CAT_ID   = 2802
ELEMENT_SET_NO = 999
REV_AT_EPOCH   = 7470
BSTAR          = .93683194E-4
MEAN_MOTION_DOT = .31E-5
MEAN_MOTION_DDOT = 0

CCSDS_OMM_VERS = 2.0
CREATION_DATE  = 
ORIGINATOR     = 

OBJECT_NAME    = SL-8 R/B
OBJECT_ID      = 1968-040B
CENTER_NAME    = EARTH
REF_FRAME      = TEME
TIME_SYSTEM    = UTC
MEAN_ELEMENT_THEORY = SGP/SGP4

EPOCH          = 2025-11-30T12:31:16.816224
MEAN_MOTION    = 15.02394121
ECCENTRICITY   = .00245916
INCLINATION    = 74.0295
RA_OF_ASC_NODE = 156.1930
ARG_OF_PERICENTER = 0.6097
MEAN_ANOMALY   = 359.5116

EPHEMERIS_TYPE = 0
CLASSIFICATION_TYPE = U
NORAD_CAT_ID   = 3230
ELEMENT_SET_NO = 999
REV_AT_EPOCH   = 7511
BSTAR          = .30174762E-3
MEAN_MOTION_DOT = .3981E-4
MEAN_MOTION_DDOT = 0

CCSDS_OMM_VERS = 2.0
CREATION_DATE  = 
ORIGINATOR     = 

OBJECT_NAME    = OAO 2
OBJECT_ID      = 1968-110A
CENTER_NAME    = EARTH
REF_FRAME      = TEME
TIME_SYSTEM    = UTC
MEAN_ELEMENT_THEORY = SGP/SGP4

EPOCH          = 2025-11-30T10:31:28.091712
MEAN_MOTION    = 14.47230744
ECCENTRICITY   = .00049463
INCLINATION    = 34.9927
RA_OF_ASC_NODE = 99.3313
ARG_OF_PERICENTER = 124.5639
MEAN_ANOMALY   = 235.5519

EPHEMERIS_TYPE = 0
CLASSIFICATION_TYPE = U
NORAD_CAT_ID   = 3597
ELEMENT_SET_NO = 999
REV_AT_EPOCH   = 471
BSTAR          = .84237664E-4
MEAN_MOTION_DOT = .293E-5
MEAN_MOTION_DDOT = 0

CCSDS_OMM_VERS = 2.0
CREATION_DATE  = 
ORIGINATOR     = 

OBJECT_NAME    = ISIS 1
OBJECT_ID      = 1969-009A
CENTER_NAME    = EARTH
REF_FRAME      = TEME
TIME_SYSTEM    = UTC
MEAN_ELEMENT_THEORY = SGP/SGP4

EPOCH          = 2025-11-30T11:47:52.245024
MEAN_MOTION    = 11.30346417
ECCENTRICITY   = .17069334
INCLINATION    = 88.4489
RA_OF_ASC_NODE = 166.1361
ARG_OF_PERICENTER = 289.4548
MEAN_ANOMALY   = 53.0302

EPHEMERIS_TYPE = 0
CLASSIFICATION_TYPE = U
NORAD_CAT_ID   = 3669
ELEMENT_SET_NO = 999
REV_AT_EPOCH   = 33732
BSTAR          = .1490985E-3
MEAN_MOTION_DOT = .204E-5
MEAN_MOTION_DDOT = 0

CCSDS_OMM_VERS = 2.0
CREATION_DATE  = 
ORIGINATOR     = 

OBJECT_NAME    = SERT 2
OBJECT_ID      = 1970-009A
CENTER_NAME    = EARTH
REF_FRAME      = TEME
TIME_SYSTEM    = UTC
MEAN_ELEMENT_THEORY = SGP/SGP4

EPOCH          = 2025-11-30T14:32:54.300192
MEAN_MOTION    = 13.58715143
ECCENTRICITY   = .00056477
INCLINATION    = 99.2632
RA_OF_ASC_NODE = 278.1849
ARG_OF_PERICENTER = 61.6058
MEAN_ANOMALY   = 112.0278

EPHEMERIS_TYPE = 0
CLASSIFICATION_TYPE = U
NORAD_CAT_ID   = 4327
ELEMENT_SET_NO = 999
REV_AT_EPOCH   = 76643
BSTAR          = .87948278E-4
MEAN_MOTION_DOT = .23E-6
MEAN_MOTION_DDOT = 0

CCSDS_OMM_VERS = 2.0
CREATION_DATE  = 
ORIGINATOR     = 

OBJECT_NAME    = SL-3 R/B
OBJECT_ID      = 1971-028B
CENTER_NAME    = EARTH
REF_FRAME      = TEME
TIME_SYSTEM    = UTC
MEAN_ELEMENT_THEORY = SGP/SGP4

EPOCH          = 2025-11-30T15:13:19.041888
MEAN_MOTION    = 15.53528100
ECCENTRICITY   = .00197019
INCLINATION    = 81.2382
RA_OF_ASC_NODE = 173.6356
ARG_OF_PERICENTER = 284.4922
MEAN_ANOMALY   = 75.4141

EPHEMERIS_TYPE = 0
CLASSIFICATION_TYPE = U
NORAD_CAT_ID   = 5118
ELEMENT_SET_NO = 999
REV_AT_EPOCH   = 97325
BSTAR          = .4402012E-3
MEAN_MOTION_DOT = .28293E-3
MEAN_MOTION_DDOT = 0

CCSDS_OMM_VERS = 2.0
CREATION_DATE  = 
ORIGINATOR     = 

OBJECT_NAME    = ASTEX 1
OBJECT_ID      = 1971-089A
CENTER_NAME    = EARTH
REF_FRAME      = TEME
TIME_SYSTEM    = UTC
MEAN_ELEMENT_THEORY = SGP/SGP4

EPOCH          = 2025-11-30T08:34:51.692736
MEAN_MOTION    = 14.50617514
ECCENTRICITY   = .00176143
INCLINATION    = 92.7131
RA_OF_ASC_NODE = 119.6135
ARG_OF_PERICENTER = 64.1311
MEAN_ANOMALY   = 296.1709

EPHEMERIS_TYPE = 0
CLASSIFICATION_TYPE = U
NORAD_CAT_ID   = 5560
ELEMENT_SET_NO = 999
REV_AT_EPOCH   = 84790
BSTAR          = .16610179E-3
MEAN_MOTION_DOT = .652E-5
MEAN_MOTION_DDOT = 0

CCSDS_OMM_VERS = 2.0
CREATION_DATE  = 
ORIGINATOR     = 

OBJECT_NAME    = SL-8 R/B
OBJECT_ID      = 1971-119B
CENTER_NAME    = EARTH
REF_FRAME      = TEME
TIME_SYSTEM    = UTC
MEAN_ELEMENT_THEORY = SGP/SGP4

EPOCH          = 2025-11-30T13:28:31.249056
MEAN_MOTION    = 14.35340935
ECCENTRICITY   = .05604273
INCLINATION    = 73.8892
RA_OF_ASC_NODE = 0.6815
ARG_OF_PERICENTER = 347.4043
MEAN_ANOMALY   = 11.3563

EPHEMERIS_TYPE = 0
CLASSIFICATION_TYPE = U
NORAD_CAT_ID   = 5730
ELEMENT_SET_NO = 999
REV_AT_EPOCH   = 64125
BSTAR          = .55643998E-3
MEAN_MOTION_DOT = .10592E-3
MEAN_MOTION_DDOT = 0

CCSDS_OMM_VERS = 2.0
CREATION_DATE  = 
ORIGINATOR     = 

OBJECT_NAME    = OAO 3 (COPERNICUS)
OBJECT_ID      = 1972-065A
CENTER_NAME    = EARTH
REF_FRAME      = TEME
TIME_SYSTEM    = UTC
MEAN_ELEMENT_THEORY = SGP/SGP4

EPOCH          = 2025-11-30T11:58:03.075744
MEAN_MOTION    = 14.59888209
ECCENTRICITY   = .00059845
INCLINATION    = 35.0038
RA_OF_ASC_NODE = 142.3975
ARG_OF_PERICENTER = 65.9313
MEAN_ANOMALY   = 330.2672

EPHEMERIS_TYPE = 0
CLASSIFICATION_TYPE = U
NORAD_CAT_ID   = 6153
ELEMENT_SET_NO = 999
REV_AT_EPOCH   = 83169
BSTAR          = .87470511E-4
MEAN_MOTION_DOT = .404E-5
MEAN_MOTION_DDOT = 0

