ATLAS CENTAUR 2         
1 00694U 63047A   25334.48897000  .00003775  00000+0  45001-3 0  9996
2 00694  30.3590  29.8796 0549478 286.2697  67.8161 14.11647629117592
THOR AGENA D R/B        
1 00733U 64002A   25334.51143778  .00000264  00000+0  11162-3 0  9993
2 00733  99.1220 337.4690 0032787 185.5962 174.4859 14.33947953224085
SL-3 R/B                
1 00877U 64053B   25334.52715491  .00000451  00000+0  11220-3 0  9999
2 00877  65.0769 261.9302 0072796 324.4388  35.1871 14.61255398252304
SL-8 R/B                
1 02802U 67045B   25334.61227936  .00000310  00000+0  93683-4 0  9993
2 02802  74.0092 173.1078 0064876 205.1963 154.6027 14.45519781 74708
SL-8 R/B                
1 03230U 68040B   25334.52172241  .00003981  00000+0  30175-3 0  9996
2 03230  74.0295 156.1930 0024591   0.6097 359.5116 15.02394121 75117
OAO 2                   
1 03597U 68110A   25334.43851958  .00000293  00000+0  84238-4 0  9992
2 03597  34.9927  99.3313 0004946 124.5639 235.5519 14.47230744  4719
ISIS 1                  
1 03669U 69009A   25334.49157691  .00000204  00000+0  14910-3 0  9990
2 03669  88.4489 166.1361 1706933 289.4548  53.0302 11.30346417337321
SERT 2                  
1 04327U 70009A   25334.60618403  .00000023  00000+0  87948-4 0  9991
2 04327  99.2632 278.1849 0005647  61.6058 112.0278 13.58715143766431
SL-3 R/B                
1 05118U 71028B   25334.63424817  .00028293  00000+0  44020-3 0  9991
2 05118  81.2382 173.6356 0019701 284.4922  75.4141 15.53528100973259
ASTEX 1                 
1 05560U 71089A   25334.35754274  .00000652  00000+0  16610-3 0  9994
2 05560  92.7131 119.6135 0017614  64.1311 296.1709 14.50617514847908
SL-8 R/B                
1 05730U 71119B   25334.56147279  .00010592  00000+0  55644-3 0  9995
2 05730  73.8892   0.6815 0560427 347.4043  11.3563 14.35340935641257
OAO 3 (COPERNICUS)      
1 06153U 72065A   25334.49864671  .00000404  00000+0  87471-4 0  9995
2 06153  35.0038 142.3975 0005984  65.9313 330.2672 14.59888209831694
